CZ-2C R/B               
1 54039U 22132E   26037.97539440  .00047500  00000+0  60049-3 0  9997
2 54039  97.2961  40.4283 0017938 196.3338 163.7343 15.59201995185589
GSLV R/B                
1 54149U 22138AN  26038.03158677  .00004448  00000+0  38755-3 0  9995
2 54149  87.3860 176.6210 0019386 262.3587  97.5442 14.96538472179344
XRISM                   
1 57800U 23137A   26037.33484544  .00008547  00000+0  49179-3 0  9995
2 57800  31.0019 126.4010 0007996  85.4035 274.7516 15.11106214133041
ACS3                    
1 59588U 24077B   26037.80910563  .00027485  00000+0  22704-1 0  9996
2 59588  97.2238 345.8632 0045469 174.1822 185.9879 13.88347007 89917
SZ-21 MODULE            
1 66515U 25246C   26038.04255016  .00039980  00000+0  37769-3 0  9997
2 66515  41.4765  31.6776 0002983 280.6957  79.3548 15.66234853 13262
